[Satellite]
VERSION=1.1
NAME=GPS BIII-1  (PRN 04)
NICKNAME=GPS BIII-1  (PRN 04)
TLE1=1 43873U 18109A   19315.20268350  .00000069  00000-0  00000+0 0  9993
TLE2=2 43873  54.9955 187.3703 0015218 284.1568 269.7145  2.00922608  6687
STATUS=0
